{"type": "FeatureCollection", "features": [{"type": "Feature", "properties": {"norad_id": 22675, "name": "COSMOS 2251", "group": "cosmos-2251-debris", "lat": -3.5282979759464155, "lon": 144.72880922959249, "alt_km": 796.3723770495026, "timestamp": "2025-12-08T10:52:03.340651+00:00", "meta": {"OBJECT_NAME": "COSMOS 2251", "OBJECT_ID": "1993-036A", "EPOCH": "2025-12-07T08:53:13.772256", "MEAN_MOTION": 14.33202248, "ECCENTRICITY": 0.00237974, "INCLINATION": 74.0393, "RA_OF_ASC_NODE": 325.6948, "ARG_OF_PERICENTER": 49.6348, "MEAN_ANOMALY": 310.6876, "EPHEMERIS_TYPE": 0, "CLASSIFICATION_TYPE": "U", "NORAD_CAT_ID": 22675, "ELEMENT_SET_NO": 999, "REV_AT_EPOCH": 69696, "BSTAR": 9.6258118e-05, "MEAN_MOTION_DOT": 2.39e-06, "MEAN_MOTION_DDOT": 0}, "tle": {"line1": "1 22675U 93036A   25341.37029829  .00000239  00000+0  96258-4 0  9995", "line2": "2 22675  74.0393 325.6948 0023797  49.6348 310.6876 14.33202248696965"}}, "geometry": {"type": "Point", "coordinates": [144.72880922959249, -3.5282979759464155]}}, {"type": "Feature", "properties": {"norad_id": 33757, "name": "COSMOS 2251 DEB", "group": "cosmos-2251-debris", "lat": -48.99095154938939, "lon": 170.65549093338677, "alt_km": 793.9822165347832, "timestamp": "2025-12-08T10:52:03.340679+00:00", "meta": {"OBJECT_NAME": "COSMOS 2251 DEB", "OBJECT_ID": "1993-036E", "EPOCH": "2025-12-08T00:00:42.475104", "MEAN_MOTION": 14.32579028, "ECCENTRICITY": 0.00150759, "INCLINATION": 74.0366, "RA_OF_ASC_NODE": 332.2622, "ARG_OF_PERICENTER": 346.4286, "MEAN_ANOMALY": 73.5322, "EPHEMERIS_TYPE": 0, "CLASSIFICATION_TYPE": "U", "NORAD_CAT_ID": 33757, "ELEMENT_SET_NO": 999, "REV_AT_EPOCH": 87928, "BSTAR": 6.9471502e-05, "MEAN_MOTION_DOT": 1.63e-06, "MEAN_MOTION_DDOT": 0}, "tle": {"line1": "1 33757U 93036E   25342.00049161  .00000163  00000+0  69472-4 0  9994", "line2": "2 33757  74.0366 332.2622 0015075 346.4286  73.5322 14.32579028879281"}}, "geometry": {"type": "Point", "coordinates": [170.65549093338677, -48.99095154938939]}}, {"type": "Feature", "properties": {"norad_id": 33758, "name": "COSMOS 2251 DEB", "group": "cosmos-2251-debris", "lat": -60.009012832657, "lon": 72.85683093395538, "alt_km": 718.7020125936797, "timestamp": "2025-12-08T10:52:03.340694+00:00", "meta": {"OBJECT_NAME": "COSMOS 2251 DEB", "OBJECT_ID": "1993-036F", "EPOCH": "2025-12-07T22:13:26.792256", "MEAN_MOTION": 14.51548977, "ECCENTRICITY": 0.00175105, "INCLINATION": 74.0279, "RA_OF_ASC_NODE": 224.0964, "ARG_OF_PERICENTER": 291.2371, "MEAN_ANOMALY": 81.3541, "EPHEMERIS_TYPE": 0, "CLASSIFICATION_TYPE": "U", "NORAD_CAT_ID": 33758, "ELEMENT_SET_NO": 999, "REV_AT_EPOCH": 88235, "BSTAR": 0.0011287967, "MEAN_MOTION_DOT": 4.5e-05, "MEAN_MOTION_DDOT": 0}, "tle": {"line1": "1 33758U 93036F   25341.92600454  .00004500  00000+0  11288-2 0  9992", "line2": "2 33758  74.0279 224.0964 0017510 291.2371  81.3541 14.51548977882352"}}, "geometry": {"type": "Point", "coordinates": [72.85683093395538, -60.009012832657]}}, {"type": "Feature", "properties": {"norad_id": 33760, "name": "COSMOS 2251 DEB", "group": "cosmos-2251-debris", "lat": 65.757319622309, "lon": -31.193117158988965, "alt_km": 755.7226175095602, "timestamp": "2025-12-08T10:52:03.340706+00:00", "meta": {"OBJECT_NAME": "COSMOS 2251 DEB", "OBJECT_ID": "1993-036H", "EPOCH": "2025-12-07T23:07:09.020640", "MEAN_MOTION": 14.35667311, "ECCENTRICITY": 0.00196749, "INCLINATION": 74.0318, "RA_OF_ASC_NODE": 290.2222, "ARG_OF_PERICENTER": 29.9004, "MEAN_ANOMALY": 32.4964, "EPHEMERIS_TYPE": 0, "CLASSIFICATION_TYPE": "U", "NORAD_CAT_ID": 33760, "ELEMENT_SET_NO": 999, "REV_AT_EPOCH": 88056, "BSTAR": 0.00018831942, "MEAN_MOTION_DOT": 5.19e-06, "MEAN_MOTION_DDOT": 0}, "tle": {"line1": "1 33760U 93036H   25341.96329885  .00000519  00000+0  18832-3 0  9994", "line2": "2 33760  74.0318 290.2222 0019674  29.9004  32.4964 14.35667311880566"}}, "geometry": {"type": "Point", "coordinates": [-31.193117158988965, 65.757319622309]}}, {"type": "Feature", "properties": {"norad_id": 33761, "name": "COSMOS 2251 DEB", "group": "cosmos-2251-debris", "lat": -67.62504359557963, "lon": 124.1688941958818, "alt_km": 756.1123456374871, "timestamp": "2025-12-08T10:52:03.340718+00:00", "meta": {"OBJECT_NAME": "COSMOS 2251 DEB", "OBJECT_ID": "1993-036J", "EPOCH": "2025-12-07T20:40:48.743328", "MEAN_MOTION": 14.42522409, "ECCENTRICITY": 0.00229027, "INCLINATION": 74.037, "RA_OF_ASC_NODE": 261.2128, "ARG_OF_PERICENTER": 342.1083, "MEAN_ANOMALY": 83.6357, "EPHEMERIS_TYPE": 0, "CLASSIFICATION_TYPE": "U", "NORAD_CAT_ID": 33761, "ELEMENT_SET_NO": 999, "REV_AT_EPOCH": 88164, "BSTAR": 0.00091098053, "MEAN_MOTION_DOT": 3.005e-05, "MEAN_MOTION_DDOT": 0}, "tle": {"line1": "1 33761U 93036J   25341.86167527  .00003005  00000+0  91098-3 0  9995", "line2": "2 33761  74.0370 261.2128 0022902 342.1083  83.6357 14.42522409881643"}}, "geometry": {"type": "Point", "coordinates": [124.1688941958818, -67.62504359557963]}}, {"type": "Feature", "properties": {"norad_id": 33762, "name": "COSMOS 2251 DEB", "group": "cosmos-2251-debris", "lat": 38.44512729789587, "lon": -29.004707481475965, "alt_km": 766.3052894350594, "timestamp": "2025-12-08T10:52:03.340729+00:00", "meta": {"OBJECT_NAME": "COSMOS 2251 DEB", "OBJECT_ID": "1993-036K", "EPOCH": "2025-12-07T23:14:54.987072", "MEAN_MOTION": 14.33661317, "ECCENTRICITY": 0.00148156, "INCLINATION": 74.0413, "RA_OF_ASC_NODE": 318.7497, "ARG_OF_PERICENTER": 21.6113, "MEAN_ANOMALY": 41.0573, "EPHEMERIS_TYPE": 0, "CLASSIFICATION_TYPE": "U", "NORAD_CAT_ID": 33762, "ELEMENT_SET_NO": 999, "REV_AT_EPOCH": 87979, "BSTAR": 8.2628572e-05, "MEAN_MOTION_DOT": 2.03e-06, "MEAN_MOTION_DDOT": 0}, "tle": {"line1": "1 33762U 93036K   25341.96869198  .00000203  00000+0  82629-4 0  9998", "line2": "2 33762  74.0413 318.7497 0014815  21.6113  41.0573 14.33661317879799"}}, "geometry": {"type": "Point", "coordinates": [-29.004707481475965, 38.44512729789587]}}, {"type": "Feature", "properties": {"norad_id": 33764, "name": "COSMOS 2251 DEB", "group": "cosmos-2251-debris", "lat": 74.02463180347138, "lon": 10.327319817184847, "alt_km": 768.600435772948, "timestamp": "2025-12-08T10:52:03.340740+00:00", "meta": {"OBJECT_NAME": "COSMOS 2251 DEB", "OBJECT_ID": "1993-036M", "EPOCH": "2025-12-07T23:05:20.022720", "MEAN_MOTION": 14.39493823, "ECCENTRICITY": 0.0024124, "INCLINATION": 74.0346, "RA_OF_ASC_NODE": 281.4791, "ARG_OF_PERICENTER": 248.0483, "MEAN_ANOMALY": 179.7117, "EPHEMERIS_TYPE": 0, "CLASSIFICATION_TYPE": "U", "NORAD_CAT_ID": 33764, "ELEMENT_SET_NO": 999, "REV_AT_EPOCH": 88088, "BSTAR": 0.00054874679, "MEAN_MOTION_DOT": 1.69e-05, "MEAN_MOTION_DDOT": 0}, "tle": {"line1": "1 33764U 93036M   25341.96203730  .00001690  00000+0  54875-3 0  9996", "line2": "2 33764  74.0346 281.4791 0024124 248.0483 179.7117 14.39493823880884"}}, "geometry": {"type": "Point", "coordinates": [10.327319817184847, 74.02463180347138]}}, {"type": "Feature", "properties": {"norad_id": 33765, "name": "COSMOS 2251 DEB", "group": "cosmos-2251-debris", "lat": -73.1909978350219, "lon": 110.29342028348614, "alt_km": 498.3361846581074, "timestamp": "2025-12-08T10:52:03.340751+00:00", "meta": {"OBJECT_NAME": "COSMOS 2251 DEB", "OBJECT_ID": "1993-036N", "EPOCH": "2025-12-07T23:01:16.653792", "MEAN_MOTION": 15.0955734, "ECCENTRICITY": 0.00666027, "INCLINATION": 74.0092, "RA_OF_ASC_NODE": 182.9878, "ARG_OF_PERICENTER": 275.9891, "MEAN_ANOMALY": 197.9493, "EPHEMERIS_TYPE": 0, "CLASSIFICATION_TYPE": "U", "NORAD_CAT_ID": 33765, "ELEMENT_SET_NO": 999, "REV_AT_EPOCH": 89546, "BSTAR": 0.0023685202, "MEAN_MOTION_DOT": 0.00040246, "MEAN_MOTION_DDOT": 0}, "tle": {"line1": "1 33765U 93036N   25341.95922053  .00040246  00000+0  23685-2 0  9996", "line2": "2 33765  74.0092 182.9878 0066602 275.9891 197.9493 15.09557340895465"}}, "geometry": {"type": "Point", "coordinates": [110.29342028348614, -73.1909978350219]}}, {"type": "Feature", "properties": {"norad_id": 33766, "name": "COSMOS 2251 DEB", "group": "cosmos-2251-debris", "lat": -20.957784805424346, "lon": -31.00391314587148, "alt_km": 817.9038450809685, "timestamp": "2025-12-08T10:52:03.340762+00:00", "meta": {"OBJECT_NAME": "COSMOS 2251 DEB", "OBJECT_ID": "1993-036P", "EPOCH": "2025-12-07T22:12:54.658368", "MEAN_MOTION": 14.349122, "ECCENTRICITY": 0.00639146, "INCLINATION": 74.1854, "RA_OF_ASC_NODE": 143.7208, "ARG_OF_PERICENTER": 348.4519, "MEAN_ANOMALY": 11.5163, "EPHEMERIS_TYPE": 0, "CLASSIFICATION_TYPE": "U", "NORAD_CAT_ID": 33766, "ELEMENT_SET_NO": 999, "REV_AT_EPOCH": 87676, "BSTAR": 0.00069503968, "MEAN_MOTION_DOT": 1.997e-05, "MEAN_MOTION_DDOT": 0}, "tle": {"line1": "1 33766U 93036P   25341.92563262  .00001997  00000+0  69504-3 0  9998", "line2": "2 33766  74.1854 143.7208 0063914 348.4519  11.5163 14.34912200876765"}}, "geometry": {"type": "Point", "coordinates": [-31.00391314587148, -20.957784805424346]}}, {"type": "Feature", "properties": {"norad_id": 33768, "name": "COSMOS 2251 DEB", "group": "cosmos-2251-debris", "lat": -44.99586900529645, "lon": 63.3793489117249, "alt_km": 1298.4935766261733, "timestamp": "2025-12-08T10:52:03.340774+00:00", "meta": {"OBJECT_NAME": "COSMOS 2251 DEB", "OBJECT_ID": "1993-036R", "EPOCH": "2025-12-07T23:15:02.717280", "MEAN_MOTION": 13.58448497, "ECCENTRICITY": 0.03660783, "INCLINATION": 74.0687, "RA_OF_ASC_NODE": 227.5668, "ARG_OF_PERICENTER": 26.3548, "MEAN_ANOMALY": 356.2544, "EPHEMERIS_TYPE": 0, "CLASSIFICATION_TYPE": "U", "NORAD_CAT_ID": 33768, "ELEMENT_SET_NO": 999, "REV_AT_EPOCH": 83231, "BSTAR": 0.00054312723, "MEAN_MOTION_DOT": 5.92e-06, "MEAN_MOTION_DDOT": 0}, "tle": {"line1": "1 33768U 93036R   25341.96878145  .00000592  00000+0  54313-3 0  9995", "line2": "2 33768  74.0687 227.5668 0366078  26.3548 356.2544 13.58448497832314"}}, "geometry": {"type": "Point", "coordinates": [63.3793489117249, -44.99586900529645]}}]}